COSMOS 2433 (720)       
1 32275U 07052A   22315.41558635 -.00000074  00000+0  00000+0 0  9993
2 32275  66.0712 359.7958 0004618 236.1242  89.1954  2.13104224117091
COSMOS 2432 (719)       
1 32276U 07052B   22315.61318883 -.00000073  00000+0  00000+0 0  9994
2 32276  66.0863 359.8921 0009922 313.6976 111.0970  2.13103236117105
COSMOS 2434 (721)       
1 32393U 07065A   22315.36777174  .00000012  00000+0  00000+0 0  9994
2 32393  64.3644 236.4137 0001642  71.5388 107.1624  2.13103099115804
COSMOS 2436 (723)       
1 32395U 07065C   22315.67653800  .00000011  00000+0  00000+0 0  9998
2 32395  64.3738 236.4618 0015842 356.5573 194.7781  2.13102797115746
COSMOS 2456 (730)       
1 36111U 09070A   22315.62827027  .00000038  00000+0  00000+0 0  9994
2 36111  64.3931 115.9995 0001345 341.5004 200.5802  2.13099099100470
COSMOS 2457 (733)       
1 36112U 09070B   22315.66619948  .00000038  00000+0  00000+0 0  9990
2 36112  64.3765 115.8705 0006751 148.9865 190.6473  2.13101317100474
COSMOS 2461 (735)       
1 36401U 10007B   22315.26200233 -.00000073  00000+0  00000+0 0  9992
2 36401  65.9544 358.6179 0018410   2.2654  62.4371  2.13103682 98827
COSMOS 2460 (732)       
1 36402U 10007C   22316.18106830 -.00000072  00000+0  00000+0 0  9992
2 36402  65.9406 358.5349 0001971 226.5497 133.0917  2.13106370 98832
COSMOS 2464 (736)       
1 37139U 10041C   22315.59081966  .00000012  00000+0  00000+0 0  9997
2 37139  63.9638 235.4089 0029682   8.6598 198.3139  2.13100858 94885
COSMOS 2476 (744)       
1 37867U 11064A   22315.52049558  .00000039  00000+0  00000+0 0  9994
2 37867  64.6789 117.4163 0020610 230.0055 136.1421  2.13101783 85827
COSMOS 2477 (745)       
1 37868U 11064B   22315.51993876  .00000039  00000+0  00000+0 0  9995
2 37868  64.6870 117.4825 0017885 230.0146 313.7496  2.13101597 85777
COSMOS 2475 (743)       
1 37869U 11064C   22315.76179517  .00000041  00000+0  00000+0 0  9994
2 37869  64.6943 117.4841 0021427 250.2813  77.2103  2.13101875 85786
COSMOS 2485 (747)       
1 39155U 13019A   22315.25124287  .00000038  00000+0  00000+0 0  9990
2 39155  64.8409 117.8856 0021222 226.0158 337.9778  2.13101873 74286
COSMOS 2492 (754)       
1 39620U 14012A   22315.40604729 -.00000073  00000+0  00000+0 0  9992
2 39620  65.8273 358.2216 0012721 313.0714  44.0158  2.13103198 67230
COSMOS 2500 (755)       
1 40001U 14032A   22315.74798847 -.00000073  00000+0  00000+0 0  9991
2 40001  65.7662 358.0601 0008189 209.2482 268.3976  2.13102274 65469
COSMOS 2501 (702K)      
1 40315U 14075A   22315.61403184  .00000011  00000+0  00000+0 0  9990
2 40315  63.6700 236.0201 0018344 210.3277 333.2747  2.13101287 61868
COSMOS 2514 (751)       
1 41330U 16008A   22315.35462912 -.00000073  00000+0  00000+0 0  9990
2 41330  65.5648 357.7282 0012211 217.9935 141.9854  2.13102737 52627
COSMOS 2516 (753)       
1 41554U 16032A   22315.47743059  .00000011  00000+0  00000+0 0  9993
2 41554  63.8953 236.3435 0014351 214.8606 145.0780  2.13106396 50238
COSMOS 2522 (752)       
1 42939U 17055A   22315.42542669  .00000011  00000+0  00000+0 0  9996
2 42939  64.1293 236.7819 0008156 246.4861 287.9328  2.13102079 39984
COSMOS 2527 (756)       
1 43508U 18053A   22315.85954222  .00000043  00000+0  00000+0 0  9992
2 43508  65.0038 117.8951 0007427 211.8555 327.6403  2.13102455 34288
COSMOS 2529 (757)       
1 43687U 18086A   22313.64500369  .00000005  00000+0  00000+0 0  9998
2 43687  64.3450 237.1985 0010181 268.4138 295.6276  2.13102134 31255
COSMOS 2534 (758)       
1 44299U 19030A   22313.32801633  .00000003  00000+0  00000+0 0  9999
2 44299  64.4171 237.1074 0012978 286.5999 168.6978  2.13101825 26895
COSMOS 2544 (759)       
1 44850U 19088A   22315.33868801  .00000039  00000+0  16595+1 0  9994
2 44850  64.9887 117.7623 0010641 249.5565 293.6988  2.13102232 22702
COSMOS 2545 (760)       
1 45358U 20018A   22315.53288277 -.00000075  00000+0  00000+0 0  9992
2 45358  64.9049 358.2100 0011081 243.3044 298.2269  2.13102646 20666
COSMOS 2547 (705K)      
1 46805U 20075A   22315.96762045  .00000011  00000+0  00000+0 0  9999
2 46805  64.6418 236.4854 0007519 246.8344 121.6709  2.13102890 15928
COSMOS 2557 (706K)      
1 52984U 22075A   22315.26256031 -.00000077  00000+0  10000-3 0  9990
2 52984  64.8096   0.4131 0012981 277.0150 148.0800  2.13101905  2707
